NORAD_CAT_ID,OBJECT_NAME,OBJECT_TYPE,EPOCH,MEAN_MOTION,ECCENTRICITY,INCLINATION,RA_OF_ASC_NODE,ARG_OF_PERICENTER,MEAN_ANOMALY,BSTAR,MEAN_MOTION_DOT,MEAN_MOTION_DDOT,TLE_LINE0,TLE_LINE1,TLE_LINE2,SEMIMAJOR_AXIS,PERIOD,APOGEE,PERIGEE,DECAYED
53633.0,STARLINK-4593,PAYLOAD,2024-07-28 17:46:30,15.08852577,0.0001121,53.2183,348.0417,84.4476,275.6644,0.00027732,4.13e-05,0.0,0 STARLINK-4593,1 53633U 22104AX  24210.74063011  .00004130  00000-0  27732-3 0  9992,2 53633  53.2183 348.0417 0001121  84.4476 275.6644 15.08852577106985,6917.842,95.437,540.482,538.931,0.0
53633.0,STARLINK-4593,PAYLOAD,2024-07-29 09:40:22,15.08842128,0.0001312,53.2194,345.0666,92.3281,267.7861,0.00019445,2.808e-05,0.0,0 STARLINK-4593,1 53633U 22104AX  24211.40303461  .00002808  00000-0  19445-3 0  9994,2 53633  53.2194 345.0666 0001312  92.3281 267.7861 15.08842128106393,6917.874,95.437,540.647,538.831,0.0
53633.0,STARLINK-4593,PAYLOAD,2024-07-29 16:01:54,15.08851021,0.0001444,53.2177,343.88,100.7184,259.3971,0.0003079,4.617e-05,0.0,0 STARLINK-4593,1 53633U 22104AX  24211.66799038  .00004617  00000-0  30790-3 0  9997,2 53633  53.2177 343.8800 0001444 100.7184 259.3971 15.08851021107125,6917.847,95.437,540.711,538.713,0.0
53633.0,STARLINK-4593,PAYLOAD,2024-07-30 01:34:13,15.0884842,0.0001232,53.2158,342.0972,96.7994,263.3138,0.00014152,1.966e-05,0.0,0 STARLINK-4593,1 53633U 22104AX  24212.06542995  .00001966  00000-0  14152-3 0  9998,2 53633  53.2158 342.0972 0001232  96.7994 263.3138 15.08848420107188,6917.855,95.437,540.572,538.867,0.0
53633.0,STARLINK-4593,PAYLOAD,2024-07-30 19:03:28,15.08836187,0.0001465,53.218,338.8208,82.3173,277.7985,-0.00014279,-2.56e-05,0.0,0 STARLINK-4593,1 53633U 22104AX  24212.79407556 -.00002560  00000-0 -14279-3 0  9994,2 53633  53.2180 338.8208 0001465  82.3173 277.7985 15.08836187106608,6917.892,95.438,540.771,538.744,0.0
53633.0,STARLINK-4593,PAYLOAD,2024-07-31 01:25:02,15.08796136,0.0001703,53.2167,337.6318,75.0339,285.0841,0.00056657,8.73e-05,0.0,0 STARLINK-4593,1 53633U 22104AX  24213.05906171  .00008730  00000-0  56657-3 0  9990,2 53633  53.2167 337.6318 0001703  75.0339 285.0841 15.08796136106646,6918.014,95.44,541.058,538.701,0.0
53633.0,STARLINK-4593,PAYLOAD,2024-07-31 12:32:43,15.08829144,0.0001479,53.213,335.5508,88.4619,271.6543,1.3543e-05,-7.2e-07,0.0,0 STARLINK-4593,1 53633U 22104AX  24213.52272837 -.00000072  00000-0  13543-4 0  9997,2 53633  53.2130 335.5508 0001479  88.4619 271.6543 15.08829144106717,6917.914,95.438,540.802,538.755,0.0
53633.0,STARLINK-4593,PAYLOAD,2024-07-31 14:08:06,15.08833795,0.0001123,53.2173,335.2518,72.2733,287.8382,-7.6349e-05,-1.502e-05,0.0,0 STARLINK-4593,1 53633U 22104AX  24213.58896742 -.00001502  00000-0 -76349-4 0  9993,2 53633  53.2173 335.2518 0001123  72.2733 287.8382 15.08833795107411,6917.899,95.438,540.541,538.987,0.0
53633.0,STARLINK-4593,PAYLOAD,2024-07-31 17:18:52,15.08843659,0.0001555,53.2173,334.6661,125.6406,234.4731,3.5209e-05,2.72e-06,0.0,0 STARLINK-4593,1 53633U 22104AX  24213.72143775  .00000272  00000-0  35209-4 0  9991,2 53633  53.2173 334.6661 0001555 125.6406 234.4731 15.08843659106743,6917.869,95.437,540.81,538.658,0.0
53633.0,STARLINK-4593,PAYLOAD,2024-08-01 12:23:28,15.08852178,0.0001261,53.2175,331.0893,87.1673,272.9463,0.00024033,3.54e-05,0.0,0 STARLINK-4593,1 53633U 22104AX  24214.51630596  .00003540  00000-0  24033-3 0  9994,2 53633  53.2175 331.0893 0001261  87.1673 272.9463 15.08852178106863,6917.843,95.437,540.581,538.836,0.0
53633.0,STARLINK-4593,PAYLOAD,2024-08-01 17:09:37,15.08863601,0.0001365,53.2177,330.1966,89.0144,271.1005,0.00036828,5.582e-05,0.0,0 STARLINK-4593,1 53633U 22104AX  24214.71501482  .00005582  00000-0  36828-3 0  9990,2 53633  53.2177 330.1966 0001365  89.0144 271.1005 15.08863601106894,6917.808,95.436,540.618,538.729,0.0
53633.0,STARLINK-4593,PAYLOAD,2024-08-02 01:06:34,15.08846939,0.000138,53.2163,328.7105,92.6004,267.5146,0.00020944,3.047e-05,0.0,0 STARLINK-4593,1 53633U 22104AX  24215.04622692  .00003047  00000-0  20944-3 0  9990,2 53633  53.2163 328.7105 0001380  92.6004 267.5146 15.08846939106945,6917.859,95.437,540.679,538.77,0.0
53633.0,STARLINK-4593,PAYLOAD,2024-08-02 13:49:39,15.08847768,0.0001428,53.2169,326.335,92.9429,267.1726,0.00022213,3.25e-05,0.0,0 STARLINK-4593,1 53633U 22104AX  24215.57614618  .00003250  00000-0  22213-3 0  9994,2 53633  53.2169 326.3350 0001428  92.9429 267.1726 15.08847768107711,6917.857,95.437,540.71,538.734,0.0
53633.0,STARLINK-4593,PAYLOAD,2024-08-03 00:57:21,15.08846384,0.0001207,53.2159,324.2547,104.3659,255.7467,4.4576e-05,4.22e-06,0.0,0 STARLINK-4593,1 53633U 22104AX  24216.03982768  .00000422  00000-0  44576-4 0  9995,2 53633  53.2159 324.2547 0001207 104.3659 255.7467 15.08846384107092,6917.861,95.437,540.561,538.891,0.0
53633.0,STARLINK-4593,PAYLOAD,2024-08-03 13:40:27,15.08841524,0.0002002,53.2185,321.8749,96.2549,263.8671,-0.00017145,-3.016e-05,0.0,0 STARLINK-4593,1 53633U 22104AX  24216.56975878 -.00003016  00000-0 -17145-3 0  9992,2 53633  53.2185 321.8749 0002002  96.2549 263.8671 15.08841524107176,6917.876,95.437,541.126,538.356,0.0
53633.0,STARLINK-4593,PAYLOAD,2024-08-03 16:51:12,15.08851493,0.0001302,53.2184,321.2775,103.2869,256.8268,-0.000184,-3.216e-05,0.0,0 STARLINK-4593,1 53633U 22104AX  24216.70223046 -.00003216  00000-0 -18400-3 0  9998,2 53633  53.2184 321.2775 0001302 103.2869 256.8268 15.08851493107196,6917.845,95.437,540.611,538.81,0.0
53633.0,STARLINK-4593,PAYLOAD,2024-08-04 13:31:14,15.0883552,0.0001508,53.217,317.4155,86.6355,273.4809,-3.5255e-06,-3.44e-06,0.0,0 STARLINK-4593,1 53633U 22104AX  24217.56335997 -.00000344  00000-0 -35255-5 0  9990,2 53633  53.2170 317.4155 0001508  86.6355 273.4809 15.08835520107326,6917.894,95.438,540.802,538.716,0.0
53633.0,STARLINK-4593,PAYLOAD,2024-08-05 13:22:00,15.08858752,0.0001412,53.2176,312.9556,81.618,278.4972,0.00060451,9.351e-05,0.0,0 STARLINK-4593,1 53633U 22104AX  24218.55694787  .00009351  00000-0  60451-3 0  9994,2 53633  53.2176 312.9556 0001412  81.6180 278.4972 15.08858752107476,6917.823,95.436,540.665,538.711,0.0
53633.0,STARLINK-4593,PAYLOAD,2024-08-05 22:54:19,15.08846827,0.0001499,53.2175,311.1689,79.2796,280.8365,0.00010173,1.332e-05,0.0,0 STARLINK-4593,1 53633U 22104AX  24218.95439182  .00001332  00000-0  10173-3 0  9991,2 53633  53.2175 311.1689 0001499  79.2796 280.8365 15.08846827107534,6917.86,95.437,540.762,538.688,0.0
53633.0,STARLINK-4593,PAYLOAD,2024-08-06 13:12:48,15.08826575,0.0001556,53.2183,308.4972,106.3989,253.7175,-0.00035534,-5.937e-05,0.0,0 STARLINK-4593,1 53633U 22104AX  24219.55055969 -.00005937  00000-0 -35534-3 0  9990,2 53633  53.2183 308.4972 0001556 106.3989 253.7175 15.08826575107623,6917.921,95.438,540.863,538.71,0.0
53633.0,STARLINK-4593,PAYLOAD,2024-08-07 11:28:12,15.08858568,0.0001352,53.2164,304.3327,101.9791,258.1352,0.0015252,0.00024081,0.0,0 STARLINK-4593,1 53633U 22104AX  24220.47792382  .00024081  00000-0  15252-2 0  9993,2 53633  53.2164 304.3327 0001352 101.9791 258.1352 15.08858568107765,6917.824,95.436,540.624,538.753,0.0
53633.0,STARLINK-4593,PAYLOAD,2024-08-08 12:54:22,15.08858468,0.0001766,53.2158,299.5772,76.1182,284.0007,0.00069798,0.00010843,0.0,0 STARLINK-4593,1 53633U 22104AX  24221.53776135  .00010843  00000-0  69798-3 0  9995,2 53633  53.2158 299.5772 0001766  76.1182 284.0007 15.08858468108612,6917.824,95.436,540.911,538.467,0.0
53633.0,STARLINK-4593,PAYLOAD,2024-08-08 22:26:41,15.08846919,0.0001752,53.2153,297.7895,77.7264,282.3924,0.00061835,9.569e-05,0.0,0 STARLINK-4593,1 53633U 22104AX  24221.93519935  .00009569  00000-0  61835-3 0  9999,2 53633  53.2153 297.7895 0001752  77.7264 282.3924 15.08846919108679,6917.859,95.437,540.936,538.512,0.0
53633.0,STARLINK-4593,PAYLOAD,2024-08-09 04:48:13,15.08853421,0.0001851,53.2152,296.5981,78.9752,281.1448,0.00058677,9.066e-05,0.0,0 STARLINK-4593,1 53633U 22104AX  24222.20016025  .00009066  00000-0  58677-3 0  9994,2 53633  53.2152 296.5981 0001851  78.9752 281.1448 15.08853421108029,6917.839,95.437,540.985,538.424,0.0
53633.0,STARLINK-4593,PAYLOAD,2024-08-09 11:09:46,15.08839298,0.000138,53.215,295.4098,79.6661,280.4486,0.00064338,9.966e-05,0.0,0 STARLINK-4593,1 53633U 22104AX  24222.46512262  .00009966  00000-0  64338-3 0  9996,2 53633  53.2150 295.4098 0001380  79.6661 280.4486 15.08839298108062,6917.883,95.438,540.702,538.793,0.0
53633.0,STARLINK-4593,PAYLOAD,2024-08-09 14:20:32,15.08849573,0.0001645,53.214,294.8144,83.4044,276.7135,0.0011367,0.00017854,0.0,0 STARLINK-4593,1 53633U 22104AX  24222.59760183  .00017854  00000-0  11367-2 0  9995,2 53633  53.2140 294.8144 0001645  83.4044 276.7135 15.08849573108772,6917.851,95.437,540.854,538.578,0.0
53633.0,STARLINK-4593,PAYLOAD,2024-08-10 11:00:33,15.0885428,0.0001742,53.2159,290.9477,79.635,280.4839,0.00085482,0.00013348,0.0,0 STARLINK-4593,1 53633U 22104AX  24223.45872355  .00013348  00000-0  85482-3 0  9990,2 53633  53.2159 290.9477 0001742  79.6350 280.4839 15.08854280108216,6917.837,95.437,540.907,538.497,0.0
53633.0,STARLINK-4593,PAYLOAD,2024-08-10 14:11:19,15.08865159,0.0001751,53.2164,290.3517,80.1325,279.9865,0.0012825,0.00020196,0.0,0 STARLINK-4593,1 53633U 22104AX  24223.59120137  .00020196  00000-0  12825-2 0  9998,2 53633  53.2164 290.3517 0001751  80.1325 279.9865 15.08865159108927,6917.803,95.436,540.88,538.457,0.0
53633.0,STARLINK-4593,PAYLOAD,2024-08-10 22:08:15,15.08846892,0.0001587,53.215,288.8675,84.936,275.1813,0.00086799,0.00013556,0.0,0 STARLINK-4593,1 53633U 22104AX  24223.92240264  .00013556  00000-0  86799-3 0  9993,2 53633  53.2150 288.8675 0001587  84.9360 275.1813 15.08846892108280,6917.859,95.437,540.822,538.626,0.0
53633.0,STARLINK-4593,PAYLOAD,2024-08-11 10:51:20,15.08851271,0.0001596,53.2165,286.4886,99.4143,260.703,0.00061061,9.446e-05,0.0,0 STARLINK-4593,1 53633U 22104AX  24224.45232134  .00009446  00000-0  61061-3 0  9997,2 53633  53.2165 286.4886 0001596  99.4143 260.7030 15.08851271108361,6917.846,95.437,540.815,538.607,0.0
